*******************************************************************************
JPL/HORIZONS                 NEOWISE (C/2020 F3)           2020-Jul-09 06:44:06
Rec #:90004465 (+COV) Soln.date: 2020-Jun-16_22:44:15      # obs: 353 (70 days)
 
IAU76/J2000 helio. ecliptic osc. elements (au, days, deg., period=Julian yrs):
 
  EPOCH=  2458958.5 ! 2020-Apr-19.0000000 (TDB)    RMSW= n.a.
   EC= .9991762343449366   QR= .2946766901808353   TP= 2459034.1806295365
   OM= 61.00968684540688   W= 37.27670558969492    IN= 128.9375082086831
   A= 357.7190774701175    MA= 359.9889750746684   ADIST= 715.1434782500542
   PER= 6765.8344565066    N= .000145677           ANGMOM= .01320322
   DAN= .32818             DDN= 2.87461            L= 35.4449114
   B= 28.1060796           MOID= .362501           TP= 2020-Jul-03.6806295365
 
Comet physical (GM= km^3/s^2; RAD= km):
   GM= n.a.                RAD= n.a.
   M1=  10.9     M2=  14.9     k1=  17.25  k2=  5.      PHCOF=  .030
 
COMET comments 
1: soln ref.= JPL#10, data arc: 2020-03-27 to 2020-06-05
2: k1=17.25, k2=5., phase coef.=0.03;
*******************************************************************************
 
  
*******************************************************************************
Ephemeris / WWW_USER Thu Jul  9 06:44:06 2020 Pasadena, USA      / Horizons    
*******************************************************************************
Target body name: NEOWISE (C/2020 F3)             {source: JPL#10}
Center body name: Earth (399)                     {source: DE431}
Center-site name: GEOCENTRIC
*******************************************************************************
Start time      : A.D. 2020-Jun-01 00:00:00.0000 UT      
Stop  time      : A.D. 2020-Aug-31 00:00:00.0000 UT      
Step-size       : 1440 minutes
*******************************************************************************
Target pole/equ : No model available
Target radii    : (unavailable)                                                
Center geodetic : 0.00000000,0.00000000,0.0000000 {E-lon(deg),Lat(deg),Alt(km)}
Center cylindric: 0.00000000,0.00000000,0.0000000 {E-lon(deg),Dxy(km),Dz(km)}
Center pole/equ : High-precision EOP model        {East-longitude positive}
Center radii    : 6378.1 x 6378.1 x 6356.8 km     {Equator, meridian, pole}    
Target primary  : Sun
Vis. interferer : MOON (R_eq= 1737.400) km        {source: DE431}
Rel. light bend : Sun, EARTH                      {source: DE431}
Rel. lght bnd GM: 1.3271E+11, 3.9860E+05 km^3/s^2                              
Small-body perts: Yes                             {source: SB431-N16}
Atmos refraction: NO (AIRLESS)
RA format       : HMS
Time format     : CAL 
EOP file        : eop.200708.p200929                                           
EOP coverage    : DATA-BASED 1962-JAN-20 TO 2020-JUL-08. PREDICTS-> 2020-SEP-28
Units conversion: 1 au= 149597870.700 km, c= 299792.458 km/s, 1 day= 86400.0 s 
Table cut-offs 1: Elevation (-90.0deg=NO ),Airmass (>38.000=NO), Daylight (NO )
Table cut-offs 2: Solar elongation (  0.0,180.0=NO ),Local Hour Angle( 0.0=NO )
Table cut-offs 3: RA/DEC angular rate (     0.0=NO )                           
*******************************************************************************
Initial IAU76/J2000 heliocentric ecliptic osculating elements (au, days, deg.):
  EPOCH=  2458958.5 ! 2020-Apr-19.0000000 (TDB)    RMSW= n.a.                  
   EC= .9991762343449366   QR= .2946766901808353   TP= 2459034.1806295365      
   OM= 61.00968684540688   W= 37.27670558969492    IN= 128.9375082086831       
  Equivalent ICRF heliocentric equatorial cartesian coordinates (au, au/d):
   X=-1.000444970632873E+00  Y= 9.174330239620140E-01  Z=-1.057907371300881E+00
  VX= 1.322394424520725E-02 VY=-2.537912294227713E-03 VZ= 1.271805359401739E-02
Comet physical (GM= km^3/s^2; RAD= km):                                        
   GM= n.a.                RAD= n.a.                                           
   M1=  10.9     M2=  14.9     k1=  17.25  k2=  5.      PHCOF=  .030           
***********************************************************************************************************************************************************
 Date__(UT)__HR:MN     R.A._____(ICRF)_____DEC R.A.__(a-apparent)__DEC   T-mag   N-mag               r        rdot            delta      deldot    S-O-T /r
***********************************************************************************************************************************************************
$$SOE
 2020-Aug-10 00:00     13 27 49.18 +13 39 59.8 13 28 48.56 +13 33 52.7  11.056  16.770  1.014508900730  35.1940216 1.02239175909907  50.3146578  59.7720 /T
 2020-Aug-11 00:00     13 31 57.71 +12 27 46.2 13 32 57.23 +12 21 41.7  11.266  16.827  1.034771706653  34.9866451 1.05169901949763  51.1644179  60.1076 /T
 2020-Aug-12 00:00     13 35 50.74 +11 19 15.8 13 36 50.40 +11 13 13.8  11.471  16.885  1.054915489609  34.7819933 1.08146550333363  51.9072004  60.3734 /T
 2020-Aug-13 00:00     13 39 29.85 +10 14 15.5 13 40 29.67 +10 08 15.9  11.671  16.942  1.074941866148  34.5801843 1.11163269666689  52.5540852  60.5744 /T
 2020-Aug-14 00:00     13 42 56.44 +09 12 32.4 13 43 56.42 +09 06 35.2  11.867  17.000  1.094852510519  34.3813036 1.14214813185789  53.1149493  60.7154 /T
 2020-Aug-15 00:00     13 46 11.74 +08 13 54.3 13 47 11.89 +08 07 59.3  12.060  17.057  1.114649137820  34.1854105 1.17296472184358  53.5985683  60.8009 /T
 2020-Aug-16 00:00     13 49 16.83 +07 18 09.4 13 50 17.15 +07 12 16.6  12.247  17.113  1.134333490044  33.9925420 1.20404015487732  54.0127239  60.8350 /T
 2020-Aug-17 00:00     13 52 12.67 +06 25 06.4 13 53 13.16 +06 19 15.7  12.431  17.170  1.153907324553  33.8027168 1.23533635167368  54.3643119  60.8216 /T
 2020-Aug-18 00:00     13 55 00.12 +05 34 34.8 13 56 00.78 +05 28 46.2  12.611  17.226  1.173372404554  33.6159386 1.26681898550329  54.6594515  60.7643 /T
 2020-Aug-19 00:00     13 57 39.94 +04 46 24.8 13 58 40.76 +04 40 38.2  12.787  17.281  1.192730491266  33.4321987 1.29845706436221  54.9035906  60.6662 /T
 2020-Aug-20 00:00     14 00 12.80 +04 00 27.1 14 01 13.79 +03 54 42.6  12.960  17.336  1.211983337487  33.2514784 1.33022257195227  55.1016031  60.5304 /T
 2020-Aug-21 00:00     14 02 39.31 +03 16 33.3 14 03 40.45 +03 10 50.8  13.129  17.390  1.231132682341  33.0737506 1.36209016064996  55.2578705  60.3597 /T
 2020-Aug-22 00:00     14 05 00.00 +02 34 35.3 14 06 01.29 +02 28 54.8  13.294  17.443  1.250180247004  32.8989816 1.39403688603621  55.3763436  60.1565 /T
 2020-Aug-23 00:00     14 07 15.35 +01 54 25.7 14 08 16.79 +01 48 47.1  13.456  17.496  1.269127731269  32.7271321 1.42604197099231  55.4605838  59.9233 /T
 2020-Aug-24 00:00     14 09 25.80 +01 15 57.7 14 10 27.39 +01 10 21.1  13.615  17.548  1.287976810798  32.5581588 1.45808658921848  55.5137905  59.6621 /T
 2020-Aug-25 00:00     14 11 31.74 +00 39 04.9 14 12 33.48 +00 33 30.1  13.770  17.599  1.306729134959  32.3920150 1.49015366247997  55.5388226  59.3748 /T
 2020-Aug-26 00:00     14 13 33.52 +00 03 41.4 14 14 35.42 -00 01 51.5  13.923  17.649  1.325386325155  32.2286513 1.52222767045831  55.5382214  59.0633 /T
 2020-Aug-27 00:00     14 15 31.47 -00 30 18.2 14 16 33.51 -00 35 49.4  14.072  17.699  1.343949973560  32.0680165 1.55429447468128  55.5142364  58.7291 /T
 2020-Aug-28 00:00     14 17 25.86 -01 02 59.1 14 18 28.06 -01 08 28.6  14.219  17.748  1.362421642205  31.9100580 1.58634115826556  55.4688542  58.3738 /T
 2020-Aug-29 00:00     14 19 16.97 -01 34 26.0 14 20 19.31 -01 39 53.8  14.363  17.796  1.380802862346  31.7547224 1.61835588213018  55.4038261  57.9988 /T
 2020-Aug-30 00:00     14 21 05.03 -02 04 43.2 14 22 07.52 -02 10 09.3  14.504  17.843  1.399095134072  31.6019557 1.65032775711245  55.3206952  57.6052 /T
 2020-Aug-31 00:00     14 22 50.26 -02 33 54.7 14 23 52.89 -02 39 19.2  14.642  17.890  1.417299926115  31.4517036 1.68224673070218  55.2208202  57.1944 /T
